SAUDISAT 1C (SO-50)     
1 27607U 02058C   26062.54737567  .00002181  00000+0  27456-3 0  9995
2 27607  64.5510  95.7694 0075104 281.7708  77.4980 14.82753743248794
SAUDISAT 2              
1 28371U 04025F   26062.58839591  .00000486  00000+0  11984-3 0  9999
2 28371  98.5493  59.8567 0023518 260.7971  99.0566 14.56610022150370
SAUDISAT 3              
1 31118U 07012B   26062.71686297  .00000514  00000+0  91218-4 0  9990
2 31118  98.1339  13.1256 0014133 198.0678 162.0028 14.71347129 12234
PISAT                   
1 41784U 16059B   26062.55766424  .00001447  00000+0  25467-3 0  9992
2 41784  97.8188  67.5655 0029051 180.1556 179.9646 14.68755523504236
FLYING LAPTOP           
1 42831U 17042G   26062.84293516  .00004407  00000+0  35328-3 0  9994
2 42831  97.4249 222.7783 0018522 114.4983 245.8175 15.00469402470659
SALSAT                  
1 46495U 20068K   26062.77970161  .00012684  00000+0  46597-3 0  9992
2 46495  97.8847  59.5668 0008731 321.6728  38.3888 15.28039347299257
